AXCT FlyLog example
HFDTEDATE:180926,01
HFPLTPILOTINCHARGE:Pilote Demo
HFGTYGLIDERTYPE:Voile EN-B
HFGIDGLIDERID:
B1230004518390N00553220EA0097800990
B1230014518390N00553220EA0097800990
B1230024518390N00553220EA0097800990
B1230034518390N00553220EA0097800990
B1230044518390N00553220EA0097800990
B1230054518390N00553220EA0097800990
B1230064518390N00553220EA0097800990
B1230074518390N00553220EA0097800990
B1230084518390N00553220EA0097800990
B1230094518390N00553220EA0097800990
B1230104518390N00553220EA0097800990
B1230114518390N00553220EA0097800990
B1230124518390N00553220EA0097800990
B1230134518390N00553220EA0097800990
B1230144518390N00553220EA0097800990
B1230154518390N00553220EA0097800990
B1230164518390N00553220EA0097800990
B1230174518390N00553220EA0097800990
B1230184518390N00553220EA0097800990
B1230194518390N00553220EA0097800990
B1230204518390N00553220EA0097800990
B1230214518390N00553220EA0097800990
B1230224518390N00553220EA0097800990
B1230234518390N00553220EA0097800990
B1230244518390N00553220EA0097800990
B1230254518390N00553220EA0097800990
B1230264518390N00553220EA0097800990
B1230274518390N00553220EA0097800990
B1230284518390N00553220EA0097800990
B1230294518390N00553220EA0097800990
B1230304518385N00553218EA0097600988
B1230314518380N00553217EA0097500987
B1230324518375N00553216EA0097400986
B1230334518370N00553215EA0097300985
B1230344518365N00553214EA0097100983
B1230354518360N00553213EA0097000982
B1230364518355N00553211EA0096900981
B1230374518350N00553210EA0096800980
B1230384518345N00553209EA0096700979
B1230394518341N00553207EA0096600978
B1230404518336N00553206EA0096500977
B1230414518331N00553205EA0096500977
B1230424518326N00553203EA0096300975
B1230434518321N00553202EA0096300975
B1230444518316N00553201EA0096200974
B1230454518311N00553199EA0096100973
B1230464518306N00553198EA0096000972
B1230474518301N00553197EA0095800970
B1230484518296N00553195EA0095700969
B1230494518291N00553194EA0095600968
B1230504518286N00553192EA0095600968
B1230514518281N00553191EA0095500967
B1230524518277N00553189EA0095300965
B1230534518272N00553187EA0095200964
B1230544518267N00553186EA0095100963
B1230554518262N00553184EA0095000962
B1230564518257N00553183EA0094800960
B1230574518252N00553182EA0094700959
B1230584518247N00553180EA0094600958
B1230594518242N00553179EA0094500957
B1231004518237N00553178EA0094400956
B1231014518232N00553176EA0094300955
B1231024518228N00553174EA0094200954
B1231034518223N00553172EA0094100953
B1231044518218N00553170EA0094000952
B1231054518213N00553168EA0093900951
B1231064518209N00553165EA0093700949
B1231074518204N00553163EA0093600948
B1231084518200N00553161EA0093600948
B1231094518195N00553159EA0093500947
B1231104518190N00553156EA0093300945
B1231114518185N00553154EA0093200944
B1231124518181N00553152EA0093100943
B1231134518176N00553150EA0093000942
B1231144518171N00553148EA0092900941
B1231154518167N00553145EA0092700939
B1231164518162N00553143EA0092600938
B1231174518157N00553141EA0092500937
B1231184518153N00553138EA0092400936
B1231194518148N00553135EA0092200934
B1231204518144N00553133EA0092100933
B1231214518140N00553130EA0091900931
B1231224518135N00553126EA0091900931
B1231234518131N00553123EA0091800930
B1231244518127N00553120EA0091600928
B1231254518123N00553116EA0091500927
B1231264518118N00553113EA0091500927
B1231274518114N00553110EA0091400926
B1231284518110N00553107EA0091300925
B1231294518105N00553104EA0091200924
B1231304518102N00553100EA0091500927
B1231314518101N00553095EA0091700929
B1231324518100N00553089EA0092000932
B1231334518101N00553084EA0092200934
B1231344518104N00553079EA0092500937
B1231354518107N00553075EA0092800940
B1231364518112N00553073EA0093100943
B1231374518117N00553073EA0093400946
B1231384518122N00553075EA0093700949
B1231394518126N00553079EA0093900951
B1231404518130N00553085EA0094200954
B1231414518133N00553092EA0094300955
B1231424518134N00553099EA0094600958
B1231434518134N00553107EA0094900961
B1231444518133N00553115EA0095100963
B1231454518130N00553122EA0095200964
B1231464518126N00553127EA0095500967
B1231474518122N00553130EA0095700969
B1231484518117N00553131EA0095900971
B1231494518112N00553131EA0096200974
B1231504518108N00553128EA0096400976
B1231514518106N00553124EA0096700979
B1231524518104N00553119EA0096900981
B1231534518104N00553113EA0097100983
B1231544518105N00553107EA0097400986
B1231554518107N00553102EA0097800990
B1231564518111N00553099EA0098000992
B1231574518116N00553097EA0098200994
B1231584518120N00553097EA0098400996
B1231594518125N00553099EA0098600998
B1232004518130N00553103EA0098901001
B1232014518134N00553109EA0099101003
B1232024518136N00553116EA0099401006
B1232034518138N00553124EA0099601008
B1232044518137N00553132EA0099901011
B1232054518136N00553140EA0100101013
B1232064518133N00553146EA0100301015
B1232074518129N00553151EA0100601018
B1232084518125N00553154EA0100701019
B1232094518120N00553156EA0101101023
B1232104518116N00553155EA0101401026
B1232114518112N00553152EA0101501027
B1232124518109N00553148EA0101801030
B1232134518107N00553142EA0102001032
B1232144518107N00553137EA0102101033
B1232154518108N00553131EA0102301035
B1232164518111N00553126EA0102401036
B1232174518115N00553123EA0102801040
B1232184518119N00553121EA0103001042
B1232194518124N00553121EA0103201044
B1232204518129N00553123EA0103501047
B1232214518134N00553128EA0103801050
B1232224518137N00553133EA0104201054
B1232234518140N00553141EA0104401056
B1232244518141N00553148EA0104701059
B1232254518141N00553157EA0105001062
B1232264518139N00553164EA0105201064
B1232274518136N00553171EA0105401066
B1232284518132N00553176EA0105501067
B1232294518128N00553179EA0105701069
B1232304518123N00553180EA0105901071
B1232314518119N00553179EA0106001072
B1232324518115N00553176EA0106301075
B1232334518112N00553172EA0106601078
B1232344518111N00553166EA0106901081
B1232354518110N00553160EA0107101083
B1232364518112N00553155EA0107201084
B1232374518114N00553150EA0107401086
B1232384518118N00553147EA0107601088
B1232394518123N00553145EA0107801090
B1232404518128N00553145EA0108101093
B1232414518133N00553148EA0108301095
B1232424518137N00553152EA0108501097
B1232434518141N00553158EA0108701099
B1232444518143N00553165EA0109101103
B1232454518144N00553173EA0109301105
B1232464518144N00553181EA0109501107
B1232474518142N00553189EA0109801110
B1232484518139N00553195EA0110101113
B1232494518135N00553200EA0110201114
B1232504518131N00553203EA0110501117
B1232514518126N00553204EA0110701119
B1232524518122N00553203EA0110901121
B1232534518118N00553200EA0111101123
B1232544518115N00553195EA0111501127
B1232554518114N00553190EA0111701129
B1232564518114N00553184EA0111901131
B1232574518115N00553179EA0112201134
B1232584518118N00553174EA0112501137
B1232594518122N00553171EA0112701139
B1233004518126N00553169EA0112901141
B1233014518131N00553169EA0113101143
B1233024518136N00553172EA0113301145
B1233034518141N00553176EA0113701149
B1233044518144N00553182EA0113901151
B1233054518147N00553190EA0114101153
B1233064518148N00553198EA0114301155
B1233074518147N00553206EA0114601158
B1233084518146N00553213EA0114901161
B1233094518143N00553219EA0115001162
B1233104518139N00553224EA0115301165
B1233114518134N00553227EA0115501167
B1233124518129N00553228EA0115801170
B1233134518125N00553227EA0116101173
B1233144518121N00553224EA0116401176
B1233154518119N00553219EA0116601178
B1233164518117N00553214EA0116701179
B1233174518117N00553208EA0116901181
B1233184518119N00553202EA0117201184
B1233194518122N00553198EA0117601188
B1233204518126N00553195EA0117701189
B1233214518130N00553193EA0117901191
B1233224518135N00553194EA0118101193
B1233234518140N00553196EA0118301195
B1233244518144N00553201EA0118501197
B1233254518148N00553207EA0118701199
B1233264518150N00553214EA0119001202
B1233274518151N00553222EA0119201204
B1233284518151N00553230EA0119501207
B1233294518149N00553237EA0119801210
B1233304518146N00553244EA0120001212
B1233314518142N00553248EA0120301215
B1233324518137N00553251EA0120501217
B1233334518133N00553252EA0120701219
B1233344518128N00553251EA0120901221
B1233354518125N00553247EA0121101223
B1233364518122N00553243EA0121201224
B1233374518121N00553237EA0121501227
B1233384518121N00553232EA0121801230
B1233394518122N00553226EA0121901231
B1233404518125N00553222EA0122101233
B1233414518129N00553219EA0122301235
B1233424518134N00553217EA0122601238
B1233434518139N00553218EA0122801240
B1233444518144N00553220EA0123101243
B1233454518148N00553225EA0123301245
B1233464518152N00553231EA0123601248
B1233474518154N00553239EA0123801250
B1233484518155N00553247EA0124001252
B1233494518154N00553255EA0124201254
B1233504518152N00553262EA0124501257
B1233514518149N00553268EA0124801260
B1233524518145N00553273EA0125101263
B1233534518140N00553275EA0125401266
B1233544518136N00553276EA0125501267
B1233554518131N00553274EA0125601268
B1233564518128N00553271EA0125701269
B1233574518125N00553267EA0125901271
B1233584518124N00553261EA0126101273
B1233594518124N00553255EA0126301275
B1234004518126N00553250EA0126501277
B1234014518129N00553246EA0126701279
B1234024518133N00553242EA0127001282
B1234034518137N00553241EA0127201284
B1234044518142N00553242EA0127401286
B1234054518147N00553245EA0127701289
B1234064518152N00553249EA0127901291
B1234074518155N00553256EA0128101293
B1234084518157N00553263EA0128401296
B1234094518158N00553271EA0128601298
B1234104518157N00553279EA0128901301
B1234114518155N00553286EA0129101303
B1234124518152N00553292EA0129201304
B1234134518148N00553297EA0129401306
B1234144518143N00553299EA0129601308
B1234154518139N00553300EA0129801310
B1234164518134N00553298EA0130101313
B1234174518131N00553295EA0130301315
B1234184518128N00553290EA0130501317
B1234194518127N00553285EA0130601318
B1234204518126N00553279EA0130601318
B1234214518125N00553273EA0130401316
B1234224518123N00553266EA0130401316
B1234234518122N00553260EA0130301315
B1234244518120N00553254EA0130201314
B1234254518119N00553248EA0130101313
B1234264518117N00553242EA0130001312
B1234274518116N00553236EA0129901311
B1234284518115N00553229EA0129801310
B1234294518113N00553223EA0129701309
B1234304518112N00553217EA0129601308
B1234314518111N00553211EA0129501307
B1234324518109N00553204EA0129301305
B1234334518108N00553198EA0129201304
B1234344518107N00553192EA0129101303
B1234354518106N00553186EA0129001302
B1234364518105N00553179EA0128801300
B1234374518104N00553173EA0128701299
B1234384518103N00553167EA0128601298
B1234394518101N00553160EA0128401296
B1234404518100N00553154EA0128401296
B1234414518099N00553148EA0128301295
B1234424518098N00553142EA0128101293
B1234434518097N00553135EA0128001292
B1234444518096N00553129EA0127901291
B1234454518095N00553123EA0127701289
B1234464518094N00553116EA0127601288
B1234474518093N00553110EA0127501287
B1234484518092N00553103EA0127401286
B1234494518092N00553097EA0127301285
B1234504518091N00553091EA0127101283
B1234514518090N00553084EA0127001282
B1234524518089N00553078EA0126901281
B1234534518089N00553071EA0126901281
B1234544518088N00553065EA0126701279
B1234554518088N00553059EA0126601278
B1234564518087N00553052EA0126501277
B1234574518086N00553046EA0126301275
B1234584518086N00553039EA0126301275
B1234594518086N00553033EA0126101273
B1235004518085N00553026EA0126001272
B1235014518085N00553020EA0125801270
B1235024518084N00553013EA0125701269
B1235034518083N00553007EA0125601268
B1235044518083N00553001EA0125501267
B1235054518082N00552994EA0125501267
B1235064518081N00552988EA0125401266
B1235074518080N00552981EA0125201264
B1235084518079N00552975EA0125101263
B1235094518078N00552969EA0125001262
B1235104518077N00552962EA0124901261
B1235114518077N00552956EA0124901261
B1235124518076N00552950EA0124801260
B1235134518075N00552943EA0124701259
B1235144518074N00552937EA0124601258
B1235154518073N00552930EA0124501257
B1235164518073N00552924EA0124401256
B1235174518072N00552918EA0124201254
B1235184518071N00552911EA0124101253
B1235194518070N00552905EA0124001252
B1235204518069N00552899EA0123901251
B1235214518068N00552892EA0123801250
B1235224518067N00552886EA0123601248
B1235234518065N00552880EA0123501247
B1235244518064N00552873EA0123401246
B1235254518063N00552867EA0123301245
B1235264518062N00552861EA0123201244
B1235274518060N00552855EA0123001242
B1235284518059N00552849EA0123001242
B1235294518058N00552842EA0122901241
B1235304518056N00552836EA0122701239
B1235314518055N00552830EA0122601238
B1235324518053N00552824EA0122601238
B1235334518052N00552818EA0122501237
B1235344518051N00552811EA0122301235
B1235354518049N00552805EA0122201234
B1235364518048N00552799EA0122101233
B1235374518047N00552793EA0122001232
B1235384518046N00552786EA0121801230
B1235394518044N00552780EA0121701229
B1235404518043N00552774EA0121601228
B1235414518042N00552768EA0121501227
B1235424518041N00552761EA0121301225
B1235434518040N00552755EA0121201224
B1235444518039N00552749EA0121101223
B1235454518038N00552742EA0121001222
B1235464518037N00552736EA0120901221
B1235474518036N00552730EA0120701219
B1235484518035N00552723EA0120601218
B1235494518034N00552717EA0120501217
B1235504518033N00552711EA0120401216
B1235514518032N00552704EA0120301215
B1235524518031N00552698EA0120201214
B1235534518030N00552692EA0119901211
B1235544518028N00552686EA0119901211
B1235554518027N00552679EA0119701209
B1235564518026N00552673EA0119601208
B1235574518025N00552667EA0119501207
B1235584518024N00552660EA0119401206
B1235594518023N00552654EA0119301205
B1236004518021N00552648EA0119201204
B1236014518020N00552642EA0119001202
B1236024518019N00552635EA0118801200
B1236034518017N00552629EA0118701199
B1236044518016N00552623EA0118601198
B1236054518014N00552617EA0118401196
B1236064518013N00552611EA0118301195
B1236074518011N00552605EA0118201194
B1236084518010N00552599EA0118001192
B1236094518008N00552593EA0117901191
B1236104518006N00552587EA0117801190
B1236114518005N00552580EA0117601188
B1236124518003N00552574EA0117501187
B1236134518002N00552568EA0117401186
B1236144518000N00552562EA0117301185
B1236154517999N00552556EA0117301185
B1236164517998N00552550EA0117101183
B1236174517997N00552543EA0117001182
B1236184517996N00552537EA0116801180
B1236194517995N00552530EA0116701179
B1236204517995N00552524EA0116601178
B1236214517994N00552518EA0116501177
B1236224517993N00552511EA0116401176
B1236234517992N00552505EA0116301175
B1236244517991N00552499EA0116201174
B1236254517990N00552492EA0116001172
B1236264517989N00552486EA0116001172
B1236274517987N00552480EA0115901171
B1236284517986N00552473EA0115801170
B1236294517985N00552467EA0115701169
B1236304517984N00552461EA0115701169
B1236314517982N00552455EA0115601168
B1236324517981N00552449EA0115501167
B1236334517979N00552443EA0115401166
B1236344517978N00552436EA0115301165
B1236354517976N00552430EA0115101163
B1236364517975N00552424EA0115001162
B1236374517973N00552418EA0114801160
B1236384517972N00552412EA0114701159
B1236394517970N00552406EA0114701159
B1236404517968N00552400EA0114601158
B1236414517967N00552394EA0114501157
B1236424517965N00552388EA0114401156
B1236434517964N00552381EA0114301155
B1236444517962N00552375EA0114201154
B1236454517961N00552369EA0114001152
B1236464517960N00552363EA0113901151
B1236474517958N00552357EA0113801150
B1236484517957N00552350EA0113701149
B1236494517955N00552344EA0113601148
B1236504517956N00552338EA0113801150
B1236514517957N00552333EA0114001152
B1236524517960N00552328EA0114201154
B1236534517964N00552325EA0114401156
B1236544517969N00552324EA0114501157
B1236554517974N00552325EA0114701159
B1236564517979N00552327EA0114601158
B1236574517983N00552332EA0114801160
B1236584517986N00552338EA0114901161
B1236594517989N00552346EA0115001162
B1237004517989N00552353EA0115101163
B1237014517989N00552361EA0115401166
B1237024517987N00552369EA0115501167
B1237034517984N00552375EA0115701169
B1237044517980N00552380EA0115801170
B1237054517975N00552382EA0116001172
B1237064517970N00552383EA0116101173
B1237074517966N00552381EA0116301175
B1237084517962N00552378EA0116501177
B1237094517960N00552373EA0116601178
B1237104517959N00552368EA0116801180
B1237114517959N00552362EA0116901181
B1237124517961N00552357EA0117001182
B1237134517964N00552352EA0117201184
B1237144517968N00552349EA0117201184
B1237154517972N00552348EA0117401186
B1237164517977N00552349EA0117501187
B1237174517982N00552352EA0117701189
B1237184517986N00552356EA0117801190
B1237194517990N00552363EA0117901191
B1237204517992N00552370EA0118101193
B1237214517993N00552378EA0118401196
B1237224517992N00552386EA0118701199
B1237234517990N00552393EA0118801200
B1237244517987N00552399EA0119101203
B1237254517983N00552404EA0119201204
B1237264517978N00552406EA0119301205
B1237274517974N00552407EA0119601208
B1237284517969N00552405EA0119801210
B1237294517966N00552402EA0120101213
B1237304517963N00552397EA0120101213
B1237314517962N00552392EA0120301215
B1237324517962N00552386EA0120501217
B1237334517964N00552381EA0120801220
B1237344517967N00552376EA0121001222
B1237354517971N00552373EA0121201224
B1237364517976N00552372EA0121501227
B1237374517981N00552373EA0121701229
B1237384517986N00552376EA0122001232
B1237394517990N00552381EA0122201234
B1237404517993N00552387EA0122301235
B1237414517996N00552395EA0122501237
B1237424517996N00552403EA0122801240
B1237434517995N00552410EA0122901241
B1237444517993N00552418EA0123001242
B1237454517990N00552424EA0123201244
B1237464517986N00552428EA0123501247
B1237474517981N00552430EA0123701249
B1237484517977N00552431EA0123801250
B1237494517972N00552429EA0124001252
B1237504517969N00552426EA0124101253
B1237514517967N00552421EA0124301255
B1237524517965N00552415EA0124501257
B1237534517966N00552410EA0124601258
B1237544517968N00552404EA0124601258
B1237554517971N00552400EA0124701259
B1237564517975N00552397EA0124801260
B1237574517980N00552396EA0124901261
B1237584517985N00552397EA0125001262
B1237594517989N00552400EA0125201264
B1238004517994N00552405EA0125401266
B1238014517997N00552412EA0125601268
B1238024517999N00552419EA0125601268
B1238034518000N00552427EA0125701269
B1238044517999N00552435EA0125901271
B1238054517997N00552442EA0126001272
B1238064517993N00552448EA0126201274
B1238074517989N00552452EA0126401276
B1238084517984N00552455EA0126601278
B1238094517980N00552455EA0126801280
B1238104517976N00552453EA0126901281
B1238114517972N00552450EA0127101283
B1238124517970N00552445EA0127301285
B1238134517969N00552439EA0127501287
B1238144517969N00552434EA0127701289
B1238154517971N00552428EA0127801290
B1238164517974N00552424EA0127901291
B1238174517979N00552421EA0128101293
B1238184517983N00552420EA0128401296
B1238194517988N00552421EA0128501297
B1238204517993N00552424EA0128701299
B1238214517997N00552429EA0128801300
B1238224518001N00552436EA0129001302
B1238234518002N00552444EA0129401306
B1238244518003N00552452EA0129601308
B1238254518002N00552459EA0129901311
B1238264518000N00552467EA0130101313
B1238274517996N00552472EA0130201314
B1238284517992N00552477EA0130401316
B1238294517988N00552479EA0130601318
B1238304517983N00552479EA0130801320
B1238314517979N00552477EA0130901321
B1238324517975N00552473EA0131101323
B1238334517973N00552469EA0131201324
B1238344517972N00552463EA0131501327
B1238354517973N00552457EA0131801330
B1238364517975N00552452EA0131801330
B1238374517978N00552448EA0132001332
B1238384517982N00552445EA0132201334
B1238394517987N00552444EA0132401336
B1238404517992N00552446EA0132401336
B1238414517997N00552449EA0132601338
B1238424518001N00552454EA0132801340
B1238434518004N00552460EA0133001342
B1238444518006N00552468EA0133301345
B1238454518006N00552476EA0133501347
B1238464518005N00552484EA0133701349
B1238474518003N00552491EA0134001352
B1238484518000N00552497EA0134301355
B1238494517995N00552501EA0134501357
B1238504517991N00552503EA0134701359
B1238514517986N00552503EA0134901361
B1238524517982N00552501EA0135201364
B1238534517979N00552497EA0135401366
B1238544517976N00552492EA0135601368
B1238554517976N00552487EA0135701369
B1238564517976N00552481EA0135901371
B1238574517978N00552476EA0136001372
B1238584517982N00552472EA0136301375
B1238594517986N00552469EA0136401376
B1239004517991N00552468EA0136601378
B1239014517996N00552470EA0136701379
B1239024518000N00552473EA0136901381
B1239034518004N00552478EA0137001382
B1239044518008N00552485EA0137101383
B1239054518009N00552493EA0137301385
B1239064518010N00552501EA0137601388
B1239074518009N00552508EA0137801390
B1239084518006N00552515EA0137901391
B1239094518003N00552521EA0138101393
B1239104517998N00552525EA0138301395
B1239114517994N00552527EA0138401396
B1239124517989N00552527EA0138501397
B1239134517985N00552525EA0138601398
B1239144517982N00552521EA0138701399
B1239154517980N00552516EA0138901401
B1239164517979N00552511EA0139001402
B1239174517980N00552505EA0139201404
B1239184517982N00552500EA0139301405
B1239194517985N00552496EA0139501407
B1239204517989N00552493EA0139701409
B1239214517994N00552492EA0139901411
B1239224517999N00552494EA0140201414
B1239234518004N00552497EA0140301415
B1239244518008N00552503EA0140401416
B1239254518011N00552509EA0140601418
B1239264518013N00552517EA0140801420
B1239274518013N00552525EA0140901421
B1239284518012N00552533EA0141001422
B1239294518009N00552540EA0141101423
B1239304518006N00552545EA0141201424
B1239314518002N00552549EA0141301425
B1239324517997N00552551EA0141601428
B1239334517992N00552551EA0141801430
B1239344517988N00552549EA0141901431
B1239354517985N00552545EA0142101433
B1239364517983N00552540EA0142201434
B1239374517982N00552534EA0142401436
B1239384517983N00552529EA0142601438
B1239394517985N00552523EA0142801440
B1239404517989N00552519EA0142901441
B1239414517993N00552517EA0143101443
B1239424517998N00552517EA0143301445
B1239434518003N00552518EA0143501447
B1239444518008N00552522EA0143601448
B1239454518012N00552527EA0143801450
B1239464518015N00552534EA0144001452
B1239474518016N00552542EA0144101453
B1239484518016N00552550EA0144301455
B1239494518015N00552557EA0144501457
B1239504518013N00552564EA0144701459
B1239514518009N00552570EA0144901461
B1239524518005N00552574EA0145001462
B1239534518000N00552575EA0145101463
B1239544517995N00552575EA0145301465
B1239554517991N00552573EA0145501467
B1239564517988N00552569EA0145601468
B1239574517986N00552564EA0145701469
B1239584517986N00552558EA0145901471
B1239594517987N00552552EA0146101473
B1240004517989N00552547EA0146301475
B1240014517992N00552543EA0146501477
B1240024517997N00552541EA0146801480
B1240034518002N00552541EA0147001482
B1240044518007N00552542EA0147201484
B1240054518011N00552546EA0147301485
B1240064518015N00552552EA0147601488
B1240074518018N00552558EA0147801490
B1240084518020N00552566EA0148001492
B1240094518020N00552574EA0148101493
B1240104518019N00552582EA0148301495
B1240114518016N00552589EA0148501497
B1240124518012N00552594EA0148701499
B1240134518008N00552598EA0148701499
B1240144518003N00552599EA0148901501
B1240154517999N00552599EA0149101503
B1240164517995N00552597EA0149201504
B1240174517992N00552593EA0149401506
B1240184517990N00552587EA0149501507
B1240194517989N00552582EA0149801510
B1240204517990N00552576EA0150101513
B1240214517992N00552571EA0150201514
B1240224517996N00552567EA0150301515
B1240234518000N00552565EA0150501517
B1240244518005N00552565EA0150701519
B1240254518010N00552567EA0150801520
B1240264518015N00552570EA0150901521
B1240274518019N00552576EA0151101523
B1240284518022N00552583EA0151201524
B1240294518023N00552591EA0151301525
B1240304518023N00552599EA0151401526
B1240314518022N00552606EA0151401526
B1240324518019N00552613EA0151601528
B1240334518015N00552618EA0151801530
B1240344518011N00552622EA0152001532
B1240354518006N00552623EA0152301535
B1240364518002N00552623EA0152501537
B1240374517998N00552620EA0152801540
B1240384517995N00552616EA0153101543
B1240394517993N00552611EA0153301545
B1240404517993N00552606EA0153401546
B1240414517994N00552600EA0153501547
B1240424517996N00552595EA0153701549
B1240434518000N00552591EA0153801550
B1240444518004N00552589EA0154001552
B1240454518009N00552589EA0154201554
B1240464518014N00552591EA0154501557
B1240474518019N00552595EA0154701559
B1240484518022N00552600EA0154901561
B1240494518025N00552607EA0155101563
B1240504518027N00552615EA0155201564
B1240514518027N00552623EA0155501567
B1240524518025N00552631EA0155701569
B1240534518022N00552638EA0155901571
B1240544518019N00552643EA0156001572
B1240554518014N00552646EA0156201574
B1240564518009N00552648EA0156401576
B1240574518005N00552647EA0156501577
B1240584518001N00552644EA0156701579
B1240594517998N00552640EA0156901581
B1241004517996N00552635EA0157101583
B1241014517996N00552629EA0157401586
B1241024517997N00552624EA0157501587
B1241034518000N00552619EA0157701589
B1241044518003N00552615EA0157901591
B1241054518008N00552613EA0158001592
B1241064518013N00552613EA0158201594
B1241074518018N00552615EA0158301595
B1241084518022N00552619EA0158401596
B1241094518026N00552625EA0158601598
B1241104518030N00552631EA0158501597
B1241114518034N00552638EA0158401596
B1241124518038N00552644EA0158301595
B1241134518042N00552651EA0158201594
B1241144518046N00552657EA0158201594
B1241154518050N00552664EA0158001592
B1241164518054N00552671EA0157901591
B1241174518057N00552678EA0157801590
B1241184518061N00552685EA0157701589
B1241194518065N00552692EA0157501587
B1241204518068N00552699EA0157401586
B1241214518072N00552706EA0157301585
B1241224518076N00552713EA0157101583
B1241234518079N00552720EA0157001582
B1241244518083N00552726EA0156901581
B1241254518087N00552733EA0156801580
B1241264518091N00552740EA0156601578
B1241274518095N00552747EA0156501577
B1241284518098N00552754EA0156301575
B1241294518102N00552761EA0156201574
B1241304518106N00552768EA0156101573
B1241314518109N00552775EA0156001572
B1241324518113N00552782EA0155901571
B1241334518116N00552789EA0155801570
B1241344518120N00552796EA0155701569
B1241354518123N00552804EA0155601568
B1241364518126N00552811EA0155501567
B1241374518130N00552818EA0155301565
B1241384518133N00552826EA0155201564
B1241394518136N00552833EA0155101563
B1241404518140N00552840EA0155101563
B1241414518143N00552848EA0155001562
B1241424518147N00552855EA0154901561
B1241434518150N00552862EA0154901561
B1241444518153N00552870EA0154801560
B1241454518156N00552877EA0154701559
B1241464518160N00552884EA0154501557
B1241474518163N00552892EA0154401556
B1241484518166N00552899EA0154201554
B1241494518169N00552907EA0154201554
B1241504518172N00552915EA0154101553
B1241514518175N00552922EA0154001552
B1241524518178N00552930EA0153801550
B1241534518181N00552938EA0153701549
B1241544518184N00552945EA0153601548
B1241554518187N00552953EA0153501547
B1241564518190N00552961EA0153401546
B1241574518193N00552968EA0153301545
B1241584518196N00552976EA0153201544
B1241594518199N00552984EA0153001542
B1242004518202N00552991EA0153001542
B1242014518205N00552999EA0152901541
B1242024518208N00553007EA0152801540
B1242034518211N00553014EA0152701539
B1242044518214N00553022EA0152601538
B1242054518217N00553030EA0152401536
B1242064518220N00553037EA0152301535
B1242074518223N00553045EA0152301535
B1242084518226N00553052EA0152101533
B1242094518230N00553060EA0152001532
B1242104518233N00553067EA0151801530
B1242114518236N00553075EA0151601528
B1242124518239N00553082EA0151501527
B1242134518242N00553090EA0151401526
B1242144518246N00553097EA0151201524
B1242154518249N00553104EA0151201524
B1242164518252N00553112EA0151101523
B1242174518256N00553119EA0150901521
B1242184518259N00553126EA0150801520
B1242194518263N00553133EA0150701519
B1242204518266N00553141EA0150601518
B1242214518270N00553148EA0150601518
B1242224518273N00553155EA0150401516
B1242234518277N00553162EA0150301515
B1242244518280N00553170EA0150201514
B1242254518284N00553177EA0150101513
B1242264518287N00553184EA0150001512
B1242274518291N00553191EA0149901511
B1242284518294N00553198EA0149801510
B1242294518298N00553205EA0149601508
B1242304518301N00553213EA0149501507
B1242314518304N00553220EA0149401506
B1242324518308N00553227EA0149301505
B1242334518311N00553234EA0149101503
B1242344518315N00553241EA0149001502
B1242354518319N00553248EA0148901501
B1242364518323N00553255EA0148801500
B1242374518326N00553262EA0148701499
B1242384518330N00553268EA0148701499
B1242394518334N00553275EA0148601498
B1242404518338N00553282EA0148401496
B1242414518342N00553289EA0148301495
B1242424518345N00553296EA0148201494
B1242434518348N00553303EA0148101493
B1242444518352N00553310EA0148001492
B1242454518356N00553317EA0147801490
B1242464518359N00553325EA0147801490
B1242474518363N00553332EA0147701489
B1242484518366N00553339EA0147601488
B1242494518370N00553346EA0147501487
B1242504518373N00553353EA0147401486
B1242514518377N00553360EA0147201484
B1242524518381N00553367EA0147101483
B1242534518384N00553374EA0147001482
B1242544518388N00553381EA0146901481
B1242554518392N00553387EA0146801480
B1242564518396N00553394EA0146601478
B1242574518400N00553400EA0146601478
B1242584518404N00553407EA0146501477
B1242594518408N00553413EA0146401476
B1243004518413N00553419EA0146401476
B1243014518417N00553425EA0146301475
B1243024518421N00553431EA0146101473
B1243034518425N00553438EA0146001472
B1243044518430N00553444EA0145901471
B1243054518434N00553450EA0145801470
B1243064518438N00553457EA0145701469
B1243074518442N00553463EA0145601468
B1243084518446N00553469EA0145401466
B1243094518450N00553476EA0145301465
B1243104518453N00553483EA0145401466
B1243114518454N00553491EA0145501467
B1243124518454N00553499EA0145801470
B1243134518452N00553506EA0145901471
B1243144518449N00553513EA0146101473
B1243154518445N00553518EA0146101473
B1243164518441N00553521EA0146301475
B1243174518436N00553522EA0146501477
B1243184518432N00553521EA0146501477
B1243194518428N00553518EA0146601478
B1243204518425N00553514EA0146801480
B1243214518423N00553508EA0146901481
B1243224518423N00553502EA0147001482
B1243234518425N00553497EA0147101483
B1243244518427N00553492EA0147301485
B1243254518431N00553489EA0147401486
B1243264518436N00553487EA0147501487
B1243274518441N00553487EA0147701489
B1243284518446N00553490EA0147801490
B1243294518450N00553494EA0148001492
B1243304518454N00553500EA0148101493
B1243314518456N00553507EA0148301495
B1243324518457N00553515EA0148401496
B1243334518457N00553523EA0148501497
B1243344518455N00553531EA0148601498
B1243354518452N00553537EA0148801500
B1243364518448N00553542EA0148801500
B1243374518444N00553545EA0148801500
B1243384518439N00553546EA0148801500
B1243394518435N00553545EA0148901501
B1243404518431N00553542EA0149001502
B1243414518428N00553537EA0149001502
B1243424518427N00553532EA0149101503
B1243434518427N00553526EA0149101503
B1243444518428N00553521EA0149301505
B1243454518431N00553516EA0149301505
B1243464518435N00553513EA0149401506
B1243474518439N00553511EA0149501507
B1243484518444N00553512EA0149601508
B1243494518449N00553514EA0149801510
B1243504518454N00553518EA0150001512
B1243514518457N00553524EA0150001512
B1243524518460N00553532EA0150101513
B1243534518461N00553540EA0150301515
B1243544518460N00553548EA0150401516
B1243554518458N00553555EA0150501517
B1243564518455N00553561EA0150701519
B1243574518451N00553566EA0150801520
B1243584518447N00553569EA0151001522
B1243594518442N00553570EA0151201524
B1244004518438N00553569EA0151301525
B1244014518434N00553566EA0151301525
B1244024518432N00553561EA0151401526
B1244034518430N00553556EA0151501527
B1244044518430N00553550EA0151701529
B1244054518432N00553545EA0151801530
B1244064518435N00553540EA0151901531
B1244074518438N00553537EA0152001532
B1244084518443N00553535EA0152001532
B1244094518448N00553536EA0152001532
B1244104518453N00553538EA0152101533
B1244114518457N00553543EA0152101533
B1244124518461N00553549EA0152201534
B1244134518463N00553556EA0152301535
B1244144518464N00553564EA0152401536
B1244154518464N00553572EA0152501537
B1244164518462N00553580EA0152701539
B1244174518459N00553586EA0152801540
B1244184518455N00553590EA0152901541
B1244194518450N00553593EA0153001542
B1244204518445N00553594EA0153201544
B1244214518441N00553593EA0153401546
B1244224518437N00553589EA0153501547
B1244234518435N00553585EA0153701549
B1244244518433N00553580EA0153701549
B1244254518434N00553574EA0153801550
B1244264518435N00553568EA0153901551
B1244274518438N00553564EA0154201554
B1244284518442N00553561EA0154301555
B1244294518447N00553559EA0154401556
B1244304518452N00553560EA0154501557
B1244314518457N00553563EA0154601558
B1244324518461N00553567EA0154701559
B1244334518464N00553573EA0154901561
B1244344518467N00553581EA0155001562
B1244354518468N00553589EA0155101563
B1244364518467N00553597EA0155101563
B1244374518465N00553604EA0155201564
B1244384518462N00553610EA0155201564
B1244394518458N00553615EA0155301565
B1244404518455N00553622EA0155101563
B1244414518452N00553629EA0155001562
B1244424518449N00553637EA0154901561
B1244434518445N00553644EA0154701559
B1244444518442N00553651EA0154601558
B1244454518439N00553658EA0154501557
B1244464518436N00553666EA0154401556
B1244474518433N00553673EA0154201554
B1244484518430N00553680EA0154101553
B1244494518427N00553687EA0154001552
B1244504518424N00553695EA0153901551
B1244514518421N00553702EA0153901551
B1244524518418N00553709EA0153701549
B1244534518414N00553716EA0153601548
B1244544518411N00553724EA0153601548
B1244554518408N00553731EA0153401546
B1244564518405N00553738EA0153301545
B1244574518402N00553745EA0153201544
B1244584518399N00553752EA0153001542
B1244594518396N00553760EA0153001542
B1245004518392N00553767EA0152801540
B1245014518389N00553774EA0152701539
B1245024518386N00553781EA0152601538
B1245034518383N00553788EA0152501537
B1245044518380N00553796EA0152401536
B1245054518377N00553803EA0152301535
B1245064518373N00553810EA0152201534
B1245074518370N00553817EA0152101533
B1245084518367N00553824EA0152001532
B1245094518364N00553831EA0151801530
B1245104518361N00553838EA0151701529
B1245114518358N00553846EA0151501527
B1245124518354N00553853EA0151301525
B1245134518351N00553860EA0151201524
B1245144518348N00553867EA0151101523
B1245154518345N00553874EA0151001522
B1245164518341N00553881EA0150901521
B1245174518338N00553888EA0150901521
B1245184518335N00553895EA0150801520
B1245194518332N00553903EA0150701519
B1245204518329N00553910EA0150601518
B1245214518325N00553917EA0150501517
B1245224518322N00553924EA0150401516
B1245234518319N00553931EA0150301515
B1245244518316N00553938EA0150201514
B1245254518312N00553945EA0150101513
B1245264518309N00553952EA0150001512
B1245274518306N00553959EA0149901511
B1245284518302N00553966EA0149701509
B1245294518299N00553973EA0149601508
B1245304518296N00553980EA0149501507
B1245314518293N00553987EA0149401506
B1245324518289N00553994EA0149401506
B1245334518286N00554001EA0149201504
B1245344518283N00554008EA0149101503
B1245354518279N00554015EA0149001502
B1245364518276N00554022EA0148901501
B1245374518273N00554029EA0148701499
B1245384518269N00554036EA0148601498
B1245394518266N00554043EA0148501497
B1245404518263N00554050EA0148301495
B1245414518259N00554057EA0148201494
B1245424518256N00554064EA0148001492
B1245434518253N00554071EA0147801490
B1245444518249N00554078EA0147701489
B1245454518246N00554085EA0147601488
B1245464518242N00554092EA0147401486
B1245474518239N00554099EA0147301485
B1245484518236N00554106EA0147101483
B1245494518232N00554113EA0147101483
B1245504518229N00554120EA0146901481
B1245514518225N00554126EA0146801480
B1245524518222N00554133EA0146701479
B1245534518219N00554140EA0146601478
B1245544518215N00554147EA0146501477
B1245554518212N00554154EA0146301475
B1245564518208N00554161EA0146201474
B1245574518205N00554167EA0146101473
B1245584518201N00554174EA0145901471
B1245594518198N00554181EA0145701469
B1246004518194N00554188EA0145501467
B1246014518191N00554195EA0145501467
B1246024518187N00554201EA0145401466
B1246034518184N00554208EA0145201464
B1246044518180N00554215EA0145101463
B1246054518177N00554222EA0145101463
B1246064518173N00554228EA0145001462
B1246074518170N00554235EA0144901461
B1246084518166N00554242EA0144801460
B1246094518162N00554248EA0144701459
B1246104518159N00554255EA0144501457
B1246114518155N00554262EA0144401456
B1246124518152N00554268EA0144201454
B1246134518148N00554275EA0144001452
B1246144518144N00554281EA0143901451
B1246154518141N00554288EA0143801450
B1246164518137N00554294EA0143701449
B1246174518133N00554301EA0143501447
B1246184518130N00554308EA0143501447
B1246194518126N00554314EA0143401446
B1246204518122N00554321EA0143201444
B1246214518119N00554327EA0143101443
B1246224518115N00554333EA0143101443
B1246234518111N00554340EA0142901441
B1246244518107N00554346EA0142901441
B1246254518103N00554353EA0142701439
B1246264518100N00554359EA0142601438
B1246274518096N00554365EA0142501437
B1246284518092N00554372EA0142501437
B1246294518088N00554378EA0142401436
B1246304518084N00554384EA0142301435
B1246314518080N00554390EA0142301435
B1246324518077N00554396EA0142101433
B1246334518073N00554403EA0142001432
B1246344518069N00554409EA0142001432
B1246354518065N00554415EA0141801430
B1246364518061N00554421EA0141701429
B1246374518057N00554427EA0141501427
B1246384518053N00554433EA0141401426
B1246394518048N00554438EA0141301425
B1246404518044N00554444EA0141201424
B1246414518040N00554450EA0141101423
B1246424518036N00554456EA0141001422
B1246434518032N00554461EA0140901421
B1246444518027N00554467EA0140801420
B1246454518023N00554472EA0140601418
B1246464518019N00554476EA0140401416
B1246474518015N00554478EA0140101413
B1246484518011N00554479EA0139901411
B1246494518007N00554479EA0139601408
B1246504518003N00554477EA0139401406
B1246514518000N00554475EA0139101403
B1246524517997N00554472EA0138901401
B1246534517995N00554468EA0138701399
B1246544517994N00554463EA0138401396
B1246554517993N00554458EA0138201394
B1246564517993N00554453EA0137901391
B1246574517995N00554448EA0137701389
B1246584517997N00554444EA0137501387
B1246594517999N00554440EA0137201384
B1247004517998N00554449EA0137101383
B1247014517996N00554456EA0136801380
B1247024517994N00554462EA0136501377
B1247034517991N00554467EA0136301375
B1247044517987N00554471EA0136101373
B1247054517983N00554474EA0135901371
B1247064517979N00554476EA0135601368
B1247074517975N00554477EA0135401366
B1247084517971N00554476EA0135101363
B1247094517968N00554474EA0134901361
B1247104517964N00554472EA0134601358
B1247114517962N00554468EA0134401356
B1247124517960N00554464EA0134201354
B1247134517959N00554459EA0133901351
B1247144517959N00554454EA0133601348
B1247154517962N00554461EA0133501347
B1247164517964N00554468EA0133301345
B1247174517966N00554475EA0133101343
B1247184517966N00554482EA0132801340
B1247194517966N00554489EA0132501337
B1247204517965N00554496EA0132301335
B1247214517963N00554503EA0132001332
B1247224517961N00554509EA0131801330
B1247234517957N00554514EA0131501327
B1247244517954N00554518EA0131201324
B1247254517950N00554520EA0131001322
B1247264517946N00554522EA0130701319
B1247274517951N00554521EA0130601318
B1247284517955N00554522EA0130301315
B1247294517960N00554523EA0130001312
B1247304517964N00554526EA0129801310
B1247314517968N00554531EA0129601308
B1247324517971N00554536EA0129401306
B1247334517974N00554542EA0129101303
B1247344517976N00554548EA0128801300
B1247354517978N00554555EA0128601298
B1247364517978N00554563EA0128401296
B1247374517977N00554570EA0128101293
B1247384517979N00554564EA0128101293
B1247394517981N00554559EA0127801290
B1247404517983N00554555EA0127501287
B1247414517987N00554552EA0127301285
B1247424517991N00554550EA0127001282
B1247434517995N00554549EA0126801280
B1247444517999N00554550EA0126501277
B1247454518004N00554551EA0126301275
B1247464518008N00554554EA0126101273
B1247474518012N00554558EA0125901271
B1247484518009N00554552EA0125801270
B1247494518008N00554548EA0125601268
B1247504518007N00554543EA0125301265
B1247514518008N00554538EA0125001262
B1247524518009N00554533EA0124701259
B1247534518011N00554529EA0124501257
B1247544518013N00554525EA0124301255
B1247554518017N00554522EA0124001252
B1247564518021N00554520EA0123801250
B1247574518025N00554519EA0123501247
B1247584518029N00554519EA0123201244
B1247594518034N00554521EA0123001242
B1248004518029N00554520EA0122901241
B1248014518025N00554518EA0122601238
B1248024518022N00554516EA0122401236
B1248034518019N00554512EA0122101233
B1248044518017N00554508EA0122001232
B1248054518016N00554504EA0121801230
B1248064518016N00554499EA0121501227
B1248074518016N00554494EA0121301225
B1248084518017N00554489EA0121001222
B1248094518020N00554485EA0120801220
B1248104518022N00554481EA0120501217
B1248114518026N00554478EA0120301215
B1248124518030N00554476EA0120001212
B1248134518025N00554481EA0119801210
B1248144518021N00554483EA0119501207
B1248154518017N00554485EA0119201204
B1248164518013N00554485EA0119001202
B1248174518009N00554484EA0118801200
B1248184518006N00554482EA0118601198
B1248194518003N00554479EA0118301195
B1248204518000N00554475EA0118001192
B1248214517999N00554470EA0117801190
B1248224517998N00554465EA0117501187
B1248234517998N00554460EA0117201184
B1248244517999N00554456EA0116901181
B1248254518001N00554451EA0116701179
B1248264518004N00554447EA0116401176
B1248274518007N00554444EA0116201174
B1248284518005N00554452EA0116001172
B1248294518002N00554458EA0115801170
B1248304517999N00554464EA0115501167
B1248314517996N00554468EA0115301165
B1248324517992N00554471EA0115101163
B1248334517988N00554473EA0114801160
B1248344517984N00554474EA0114501157
B1248354517980N00554474EA0114301155
B1248364517976N00554472EA0113901151
B1248374517973N00554470EA0113701149
B1248384517970N00554466EA0113401146
B1248394517968N00554462EA0113201144
B1248404517967N00554457EA0112901141
B1248414517967N00554452EA0112801140
B1248424517967N00554447EA0112501137
B1248434517970N00554455EA0112401136
B1248444517971N00554462EA0112201134
B1248454517972N00554470EA0111901131
B1248464517971N00554477EA0111601128
B1248474517970N00554484EA0111301125
B1248484517968N00554490EA0111101123
B1248494517966N00554496EA0110801120
B1248504517962N00554501EA0110601118
B1248514517959N00554505EA0110301115
B1248524517955N00554508EA0110001112
B1248534517950N00554509EA0109701109
B1248544517946N00554509EA0109601108
B1248554517942N00554508EA0109301105
B1248564517948N00554509EA0109201104
B1248574517952N00554511EA0109001102
B1248584517957N00554514EA0108701099
B1248594517960N00554518EA0108501097
B1249004517964N00554524EA0108301095
B1249014517967N00554530EA0108101093
B1249024517969N00554536EA0107801090
B1249034517970N00554544EA0107701089
B1249044517970N00554551EA0107401086
B1249054517970N00554558EA0107101083
B1249064517968N00554565EA0106801080
B1249074517971N00554559EA0106701079
B1249084517973N00554555EA0106401076
B1249094517977N00554552EA0106201074
B1249104517981N00554550EA0106001072
B1249114517985N00554549EA0105801070
B1249124517989N00554550EA0105501067
B1249134517994N00554551EA0105301065
B1249144517998N00554554EA0105101063
B1249154518002N00554558EA0104901061
B1249164518006N00554563EA0104701059
B1249174518004N00554557EA0104601058
B1249184518003N00554552EA0104301055
B1249194518003N00554547EA0104001052
B1249204518004N00554542EA0103701049
B1249214518006N00554538EA0103401046
B1249224518009N00554534EA0103201044
B1249234518012N00554531EA0102901041
B1249244518016N00554529EA0102701039
B1249254518020N00554527EA0102401036
B1249264518024N00554528EA0102101033
B1249274518029N00554529EA0101901031
B1249284518024N00554527EA0101701029
B1249294518020N00554525EA0101501027
B1249304518018N00554521EA0101201024
B1249314518015N00554517EA0101001022
B1249324518014N00554513EA0100701019
B1249334518014N00554508EA0100501017
B1249344518014N00554503EA0100301015
B1249354518015N00554498EA0100001012
B1249364518017N00554494EA0099601008
B1249374518020N00554490EA0099301005
B1249384518023N00554487EA0099001002
B1249394518027N00554485EA0098801000
B1249404518031N00554484EA0098500997
B1249414518026N00554488EA0098400996
B1249424518022N00554489EA0098100993
B1249434518018N00554490EA0097800990
B1249444518014N00554489EA0097600988
B1249454518010N00554488EA0097300985
B1249464518007N00554485EA0097100983
B1249474518005N00554481EA0096800980
B1249484518003N00554477EA0096500977
B1249494518002N00554472EA0096300975
B1249504518002N00554467EA0096000972
B1249514518002N00554462EA0095700969
B1249524518004N00554458EA0095500967
B1249534518006N00554454EA0095300965
B1249544518009N00554450EA0095100963
B1249554518007N00554458EA0094900961
B1249564518004N00554464EA0094600958
B1249574518001N00554469EA0094300955
B1249584517997N00554473EA0094000952
B1249594517993N00554475EA0093900951
B1250004517989N00554477EA0093700949
B1250014517985N00554477EA0093500947
B1250024517981N00554476EA0093200944
B1250034517977N00554474EA0093000942
B1250044517974N00554472EA0092800940
B1250054517972N00554468EA0092500937
B1250064517970N00554463EA0092300935
B1250074517969N00554459EA0092100933
B1250084517969N00554454EA0091800930
B1250094517970N00554449EA0091700929
B1250104517972N00554444EA0091400926
B1250114517974N00554452EA0091200924
B1250124517975N00554460EA0090900921
B1250134517975N00554467EA0090700919
B1250144517974N00554474EA0090500917
B1250154517972N00554481EA0090200914
B1250164517970N00554487EA0089900911
B1250174517967N00554492EA0089700909
B1250184517963N00554496EA0089500907
B1250194517959N00554499EA0089300905
B1250204517955N00554501EA0089000902
B1250214517951N00554502EA0088800900
B1250224517947N00554502EA0088600898
B1250234517944N00554500EA0088300895
B1250244517949N00554502EA0088100893
B1250254517953N00554505EA0087900891
B1250264517957N00554508EA0087700889
B1250274517961N00554513EA0087400886
B1250284517964N00554519EA0087200884
B1250294517966N00554526EA0087000882
B1250304517968N00554533EA0086700879
B1250314517968N00554540EA0086500877
B1250324517968N00554547EA0086200874
B1250334517967N00554554EA0086000872
B1250344517965N00554561EA0085700869
B1250354517968N00554555EA0085600868
B1250364517971N00554552EA0085300865
B1250374517975N00554549EA0085100863
B1250384517979N00554548EA0084800860
B1250394517983N00554547EA0084500857
B1250404517987N00554548EA0084300855
B1250414517992N00554550EA0084000852
B1250424517996N00554553EA0083700849
B1250434518000N00554558EA0083400846
B1250444518003N00554563EA0083200844
B1250454518002N00554557EA0083100843
B1250464518001N00554552EA0082900841
B1250474518001N00554547EA0082700839
B1250484518003N00554542EA0082400836
B1250494518005N00554538EA0082200834
B1250504518007N00554534EA0081800830
B1250514518011N00554531EA0081600828
B1250524518015N00554529EA0081300825
B1250534518019N00554529EA0081100823
B1250544518023N00554529EA0080900821
B1250554518028N00554531EA0080600818
B1250564518023N00554529EA0080400816
B1250574518020N00554526EA0080100813
B1250584518017N00554523EA0079800810
B1250594518015N00554518EA0079600808
B1251004518014N00554514EA0079300805
B1251014518013N00554509EA0079200804
B1251024518014N00554504EA0079000802
B1251034518015N00554499EA0078700799
B1251044518017N00554495EA0078400796
B1251054518020N00554491EA0078200794
B1251064518024N00554488EA0077900791
B1251074518028N00554487EA0077600788
B1251084518032N00554486EA0077300785
B1251094518027N00554489EA0077200784
B1251104518023N00554491EA0077000782
B1251114518019N00554491EA0076800780
B1251124518015N00554491EA0076600778
B1251134518011N00554489EA0076300775
B1251144518008N00554486EA0076100773
B1251154518006N00554482EA0075900771
B1251164518004N00554478EA0075700769
B1251174518003N00554473EA0075500767
B1251184518003N00554468EA0075200764
B1251194518004N00554463EA0074900761
B1251204518005N00554458EA0074700759
B1251214518008N00554454EA0074400756
B1251224518011N00554451EA0074200754
B1251234518008N00554459EA0074100753
B1251244518005N00554464EA0073800750
B1251254518002N00554469EA0073600748
B1251264517998N00554473EA0073400746
B1251274517994N00554475EA0073100743
B1251284517990N00554476EA0072800740
B1251294517986N00554477EA0072600738
B1251304517982N00554475EA0072300735
B1251314517979N00554473EA0072100733
B1251324517976N00554470EA0071900731
B1251334517973N00554466EA0071600728
B1251344517972N00554462EA0071300725
B1251354517971N00554457EA0071000722
B1251364517972N00554452EA0070700719
B1251374517973N00554447EA0070400716
B1251384517974N00554442EA0070200714
B1251394517976N00554451EA0070000712
B1251404517977N00554458EA0069700709
B1251414517977N00554465EA0069500707
B1251424517975N00554472EA0069300705
B1251434517974N00554479EA0069000702
B1251444517971N00554485EA0068800700
B1251454517968N00554490EA0068600698
B1251464517964N00554494EA0068300695
B1251474517960N00554497EA0068100693
B1251484517956N00554498EA0067700689
B1251494517952N00554499EA0067400686
B1251504517948N00554498EA0067200684
B1251514517944N00554496EA0067000682
B1251524517950N00554498EA0066900681
B1251534517954N00554501EA0066700679
B1251544517958N00554505EA0066500677
B1251554517961N00554511EA0066200674
B1251564517964N00554517EA0065900671
B1251574517966N00554523EA0065700669
B1251584517967N00554531EA0065500667
B1251594517968N00554538EA0065300665
B1252004517967N00554545EA0065100663
B1252014517966N00554552EA0064800660
B1252024517964N00554558EA0064600658
B1252034517967N00554553EA0064500657
B1252044517970N00554550EA0064200654
B1252054517974N00554547EA0064100653
B1252064517978N00554546EA0063800650
B1252074517982N00554546EA0063500647
B1252084517987N00554547EA0063200644
B1252094517991N00554550EA0062900641
B1252104517995N00554553EA0062700639
B1252114517999N00554558EA0062500637
B1252124518002N00554563EA0062200634
B1252134518000N00554557EA0062200634
B1252144518000N00554552EA0061900631
B1252154518001N00554547EA0061700629
B1252164518002N00554542EA0061400626
B1252174518004N00554538EA0061200624
B1252184518007N00554534EA0061000622
B1252194518010N00554532EA0060900621
B1252204518014N00554530EA0060600618
B1252214518019N00554529EA0060300615
B1252224518023N00554530EA0060100613
B1252234518027N00554532EA0059800610
B1252244518023N00554529EA0059600608
B1252254518020N00554527EA0059400606
B1252264518017N00554523EA0059100603
B1252274518015N00554519EA0058900601
B1252284518014N00554514EA0058700599
B1252294518013N00554510EA0058500597
B1252304518014N00554505EA0058200594
B1252314518015N00554500EA0058000592
B1252324518018N00554496EA0057700589
B1252334518020N00554492EA0057600588
B1252344518024N00554489EA0057300585
B1252354518028N00554488EA0057000582
B1252364518032N00554487EA0056800580
B1252374518027N00554490EA0056700579
B1252384518023N00554492EA0056400576
B1252394518019N00554492EA0056100573
B1252404518015N00554491EA0055900571
B1252414518012N00554489EA0055700569
B1252424518008N00554486EA0055500567
B1252434518006N00554482EA0055100563
B1252444518004N00554478EA0054900561
B1252454518004N00554473EA0054700559
B1252464518004N00554468EA0054400556
B1252474518004N00554463EA0054100553
B1252484518006N00554459EA0053900551
B1252494518009N00554455EA0053600548
B1252504518012N00554451EA0053300545
B1252514518009N00554459EA0053200544
B1252524518006N00554465EA0052900541
B1252534518003N00554469EA0052700539
B1252544517999N00554473EA0052500537
B1252554517995N00554475EA0052200534
B1252564517991N00554476EA0052000532
B1252574517987N00554476EA0051800530
B1252584517983N00554475EA0051500527
B1252594517979N00554473EA0051200524
B1253004517977N00554469EA0051000522
B1253014517974N00554465EA0050800520
B1253024517973N00554461EA0050600518
B1253034517973N00554456EA0050400516
B1253044517973N00554451EA0050100513
B1253054517974N00554446EA0049900511
B1253064517976N00554442EA0049600508
B1253074517978N00554450EA0049500507
B1253084517978N00554457EA0049400506
B1253094517978N00554465EA0049200504
B1253104517976N00554472EA0049000502
B1253114517974N00554478EA0048700499
B1253124517972N00554484EA0048400496
B1253134517968N00554489EA0048200494
B1253144517965N00554492EA0047900491
B1253154517961N00554495EA0047700489
B1253164517956N00554496EA0047400486
B1253174517952N00554496EA0047200484
B1253184517948N00554495EA0047000482
B1253194517945N00554493EA0046700479
B1253204517950N00554496EA0046600478
B1253214517955N00554499EA0046400476
B1253224517958N00554504EA0046100473
B1253234517962N00554509EA0045900471
B1253244517964N00554515EA0045600468
B1253254517966N00554522EA0045500467
B1253264517967N00554529EA0045200464
B1253274517967N00554537EA0044900461
B1253284517967N00554544EA0044700459
B1253294517965N00554550EA0044500457
B1253304517963N00554557EA0044200454
B1253314517966N00554552EA0044100453
B1253324517969N00554548EA0043800450
B1253334517973N00554546EA0043500447
B1253344517977N00554545EA0043200444
B1253354517982N00554545EA0043000442
B1253364517986N00554547EA0042800440
B1253374517990N00554549EA0042500437
B1253384517994N00554553EA0042300435
B1253394517998N00554558EA0042000432
B1253404518001N00554563EA0041700429
B1253414518000N00554557EA0041700429
B1253424517999N00554552EA0041400426
B1253434518000N00554547EA0041200424
B1253444518001N00554542EA0041100423
B1253454518004N00554538EA0040800420
B1253464518007N00554535EA0040500417
B1253474518010N00554532EA0040300415
B1253484518014N00554530EA0040000412
B1253494518018N00554530EA0039800410
B1253504518023N00554530EA0039500407
B1253514518027N00554532EA0039300405
B1253524518023N00554530EA0039200404
B1253534518019N00554527EA0038900401
B1253544518017N00554524EA0038700399
B1253554518015N00554520EA0038500397
B1253564518014N00554515EA0038200394
B1253574518013N00554510EA0038000392
B1253584518014N00554505EA0037700389
B1253594518015N00554500EA0037400386
B1254004518018N00554496EA0037200384
B1254014518021N00554492EA0036900381
B1254024518024N00554490EA0036700379
B1254034518028N00554488EA0036400376
B1254044518032N00554488EA0036100373
B1254054518027N00554491EA0036000372
B1254064518023N00554492EA0035800370
B1254074518019N00554492EA0035500367
B1254084518015N00554492EA0035200364
B1254094518012N00554489EA0035000362
B1254104518009N00554486EA0034700359
B1254114518006N00554483EA0034400356
B1254124518005N00554478EA0034200354
B1254134518004N00554473EA0033900351
B1254144518004N00554468EA0033600348
B1254154518005N00554464EA0033300345
B1254164518007N00554459EA0033100343
B1254174518009N00554455EA0032900341
B1254184518012N00554452EA0032600338
B1254194518010N00554459EA0032500337
B1254204518007N00554465EA0032300335
B1254214518003N00554469EA0032000332
B1254224517999N00554473EA0031700329
B1254234517995N00554475EA0031400326
B1254244517991N00554476EA0031100323
B1254254517987N00554476EA0031000322
B1254264517983N00554475EA0030600318
B1254274517980N00554472EA0030400316
B1254284517977N00554469EA0030200314
B1254294517975N00554465EA0030000312
B1254304517974N00554460EA0029700309
B1254314517973N00554455EA0029400306
B1254324517974N00554450EA0029200304
B1254334517975N00554446EA0028900301
B1254344517977N00554454EA0028900301
B1254354517977N00554461EA0028600298
B1254364517977N00554468EA0028300295
B1254374517976N00554475EA0028100293
B1254384517974N00554482EA0027900291
B1254394517972N00554488EA0027600288
B1254404517968N00554493EA0027400286
B1254414517965N00554497EA0027100283
B1254424517961N00554500EA0026800280
B1254434517957N00554501EA0026600278
B1254444517952N00554502EA0026300275
B1254454517949N00554501EA0026000272
B1254464517945N00554499EA0025700269
B1254474517950N00554501EA0025600268
B1254484517955N00554504EA0025400266
B1254494517959N00554508EA0025100263
B1254504517962N00554513EA0024800260
B1254514517965N00554519EA0024500257
B1254524517967N00554525EA0024300255
B1254534517969N00554532EA0024100253
B1254544517969N00554539EA0023700249
B1254554517969N00554539EA0023300245
B1254564517969N00554539EA0023400246
B1254574517969N00554539EA0023300245
B1254584517969N00554539EA0023300245
B1254594517969N00554539EA0023300245
B1255004517969N00554539EA0023300245
B1255014517969N00554539EA0023300245
B1255024517969N00554539EA0023300245
B1255034517969N00554539EA0023300245
B1255044517969N00554539EA0023300245
B1255054517969N00554539EA0023300245
B1255064517969N00554539EA0023300245
B1255074517969N00554539EA0023300245
B1255084517969N00554539EA0023300245
B1255094517969N00554539EA0023300245
B1255104517969N00554539EA0023300245
B1255114517969N00554539EA0023300245
B1255124517969N00554539EA0023300245
B1255134517969N00554539EA0023300245
B1255144517969N00554539EA0023300245
